[
    {
        "CCSDS_OMM_VERS": "3.0",
        "COMMENT": "GENERATED VIA SPACE-TRACK.ORG API",
        "CREATION_DATE": "2025-02-28T19:05:01",
        "ORIGINATOR": "18 SPCS",
        "OBJECT_NAME": "GALILEO-FM2",
        "OBJECT_ID": "2011-060B",
        "CENTER_NAME": "EARTH",
        "REF_FRAME": "TEME",
        "TIME_SYSTEM": "UTC",
        "MEAN_ELEMENT_THEORY": "SGP4",
        "EPOCH": "2025-02-28T02:39:05.294880",
        "MEAN_MOTION": "1.70475719",
        "ECCENTRICITY": "0.00054510",
        "INCLINATION": "57.1127",
        "RA_OF_ASC_NODE": "354.6102",
        "ARG_OF_PERICENTER": "335.3568",
        "MEAN_ANOMALY": "206.6972",
        "EPHEMERIS_TYPE": "0",
        "CLASSIFICATION_TYPE": "U",
        "NORAD_CAT_ID": "37847",
        "ELEMENT_SET_NO": "999",
        "REV_AT_EPOCH": "8304",
        "BSTAR": "0.00000000000000",
        "MEAN_MOTION_DOT": "-0.00000082",
        "MEAN_MOTION_DDOT": "0.0000000000000",
        "SEMIMAJOR_AXIS": "29600.121",
        "PERIOD": "844.695",
        "APOAPSIS": "23238.121",
        "PERIAPSIS": "23205.851",
        "OBJECT_TYPE": "PAYLOAD",
        "RCS_SIZE": "LARGE",
        "COUNTRY_CODE": "ESA",
        "LAUNCH_DATE": "2011-10-21",
        "SITE": "FRGUI",
        "DECAY_DATE": null,
        "FILE": "4655208",
        "GP_ID": "281917815",
        "TLE_LINE0": "0 GALILEO-FM2",
        "TLE_LINE1": "1 37847U 11060B   25059.11047795 -.00000082  00000-0  00000-0 0  9993",
        "TLE_LINE2": "2 37847  57.1127 354.6102 0005451 335.3568 206.6972  1.70475719 83041"
    }
]